start=new Date('2022-05-02T00:00:00.000Z').valueOf();
sats=[{"MEAN_MOTION":"15.06393915","MEAN_ELEMENT_THEORY":"SGP4","SEMIMAJOR_AXIS":"6925.367","ARG_OF_PERICENTER":"49.3681","TIME_SYSTEM":"UTC","APOAPSIS":"548.524","RCS_SIZE":"LARGE","RA_OF_ASC_NODE":"187.4895","BSTAR":"0.00004770600000","EPOCH":"2022-05-01T15:57:43.712928","CLASSIFICATION_TYPE":"U","ELEMENT_SET_NO":"999","PERIOD":"95.593","NORAD_CAT_ID":"44920","FILE":"3424759","REF_FRAME":"TEME","REV_AT_EPOCH":"12762","ECCENTRICITY":"0.00018650","CENTER_NAME":"EARTH","MEAN_ANOMALY":"310.7470","OBJECT_TYPE":"PAYLOAD","GP_ID":"202470635","OBJECT_ID":"2020-001G","MEAN_MOTION_DDOT":"0.0000000000000","OBJECT_NAME":"STARLINK-1102","INCLINATION":"53.0550","TLE_LINE2":"2 44920  53.0550 187.4895 0001865  49.3681 310.7470 15.06393915127624","PERIAPSIS":"545.941","SITE":"AFETR","EPHEMERIS_TYPE":"0","COUNTRY_CODE":"US","LAUNCH_DATE":"2020-01-07","DECAY_DATE":null,"TLE_LINE1":"1 44920U 20001G   22121.66508927  .00000429  00000-0  47706-4 0  9996","MEAN_MOTION_DOT":"0.00000429"},{"LAUNCH_DATE":"2020-01-07","EPHEMERIS_TYPE":"0","COUNTRY_CODE":"US","PERIAPSIS":"546.249","TLE_LINE2":"2 44921  53.0534 187.3733 0001459  57.7936 302.3194 15.06384995127608","SITE":"AFETR","MEAN_MOTION_DOT":"-0.00000607","TLE_LINE1":"1 44921U 20001H   22121.68720690 -.00000607  00000-0 -21834-4 0  9996","DECAY_DATE":null,"CENTER_NAME":"EARTH","MEAN_ANOMALY":"302.3194","OBJECT_TYPE":"PAYLOAD","REV_AT_EPOCH":"12760","ECCENTRICITY":"0.00014590","REF_FRAME":"TEME","FILE":"3424759","INCLINATION":"53.0534","MEAN_MOTION_DDOT":"0.0000000000000","OBJECT_NAME":"STARLINK-1103","OBJECT_ID":"2020-001H","GP_ID":"202471385","CLASSIFICATION_TYPE":"U","EPOCH":"2022-05-01T16:29:34.676160","NORAD_CAT_ID":"44921","ELEMENT_SET_NO":"999","PERIOD":"95.593","SEMIMAJOR_AXIS":"6925.395","MEAN_MOTION":"15.06384995","MEAN_ELEMENT_THEORY":"SGP4","RA_OF_ASC_NODE":"187.3733","BSTAR":"-0.00002183400000","APOAPSIS":"548.270","RCS_SIZE":"LARGE","ARG_OF_PERICENTER":"57.7936","TIME_SYSTEM":"UTC"},{"FILE":"3424656","REF_FRAME":"TEME","ECCENTRICITY":"0.00018060","REV_AT_EPOCH":"12761","OBJECT_TYPE":"PAYLOAD","MEAN_ANOMALY":"299.2893","CENTER_NAME":"EARTH","GP_ID":"202449261","OBJECT_ID":"2020-001J","OBJECT_NAME":"STARLINK-1104","MEAN_MOTION_DDOT":"0.0000000000000","INCLINATION":"53.0537","SITE":"AFETR","PERIAPSIS":"545.958","TLE_LINE2":"2 44922  53.0537 187.8185 0001806  60.8276 299.2893 15.06401726127619","COUNTRY_CODE":"US","EPHEMERIS_TYPE":"0","LAUNCH_DATE":"2020-01-07","TLE_LINE1":"1 44922U 20001J   22121.58766918  .00001265  00000-0  10378-3 0  9998","DECAY_DATE":null,"MEAN_MOTION_DOT":"0.00001265","MEAN_ELEMENT_THEORY":"SGP4","MEAN_MOTION":"15.06401726","SEMIMAJOR_AXIS":"6925.343","ARG_OF_PERICENTER":"60.8276","TIME_SYSTEM":"UTC","RCS_SIZE":"LARGE","APOAPSIS":"548.459","BSTAR":"0.00010378000000","RA_OF_ASC_NODE":"187.8185","EPOCH":"2022-05-01T14:06:14.617152","CLASSIFICATION_TYPE":"U","PERIOD":"95.592","ELEMENT_SET_NO":"999","NORAD_CAT_ID":"44922"},{"OBJECT_NAME":"STARLINK-1106","MEAN_MOTION_DDOT":"0.0000000000000","INCLINATION":"53.0547","GP_ID":"202470385","OBJECT_ID":"2020-001K","ECCENTRICITY":"0.00014730","REV_AT_EPOCH":"12762","MEAN_ANOMALY":"313.0766","OBJECT_TYPE":"PAYLOAD","CENTER_NAME":"EARTH","FILE":"3424759","REF_FRAME":"TEME","MEAN_MOTION_DOT":"-0.00006637","TLE_LINE1":"1 44923U 20001K   22121.67979972 -.00006637  00000-0 -42732-3 0  9994","DECAY_DATE":null,"LAUNCH_DATE":"2020-01-07","SITE":"AFETR","TLE_LINE2":"2 44923  53.0547 187.4241 0001473  47.0346 313.0766 15.06378646127624","PERIAPSIS":"546.259","EPHEMERIS_TYPE":"0","COUNTRY_CODE":"US","BSTAR":"-0.00042732000000","RA_OF_ASC_NODE":"187.4241","ARG_OF_PERICENTER":"47.0346","TIME_SYSTEM":"UTC","RCS_SIZE":"LARGE","APOAPSIS":"548.299","SEMIMAJOR_AXIS":"6925.414","MEAN_ELEMENT_THEORY":"SGP4","MEAN_MOTION":"15.06378646","PERIOD":"95.593","ELEMENT_SET_NO":"999","NORAD_CAT_ID":"44923","EPOCH":"2022-05-01T16:18:54.695808","CLASSIFICATION_TYPE":"U"},{"SEMIMAJOR_AXIS":"6925.392","MEAN_ELEMENT_THEORY":"SGP4","MEAN_MOTION":"15.06385854","BSTAR":"0.00006122800000","RA_OF_ASC_NODE":"186.5813","TIME_SYSTEM":"UTC","ARG_OF_PERICENTER":"54.1359","RCS_SIZE":"LARGE","APOAPSIS":"548.406","EPOCH":"2022-05-01T20:49:39.216864","CLASSIFICATION_TYPE":"U","PERIOD":"95.593","ELEMENT_SET_NO":"999","NORAD_CAT_ID":"44924","ECCENTRICITY":"0.00016590","REV_AT_EPOCH":"12765","OBJECT_TYPE":"PAYLOAD","MEAN_ANOMALY":"305.9784","CENTER_NAME":"EARTH","FILE":"3424759","REF_FRAME":"TEME","OBJECT_NAME":"STARLINK-1111","MEAN_MOTION_DDOT":"0.0000000000000","INCLINATION":"53.0553","GP_ID":"202471136","OBJECT_ID":"2020-001L","LAUNCH_DATE":"2020-01-07","SITE":"AFETR","TLE_LINE2":"2 44924  53.0553 186.5813 0001659  54.1359 305.9784 15.06385854127658","PERIAPSIS":"546.108","COUNTRY_CODE":"US","EPHEMERIS_TYPE":"0","MEAN_MOTION_DOT":"0.00000630","DECAY_DATE":null,"TLE_LINE1":"1 44924U 20001L   22121.86781501  .00000630  00000-0  61228-4 0  9992"},{"EPOCH":"2022-05-01T14:48:44.088480","CLASSIFICATION_TYPE":"U","ELEMENT_SET_NO":"999","PERIOD":"95.594","NORAD_CAT_ID":"44925","SEMIMAJOR_AXIS":"6925.419","MEAN_MOTION":"15.06377013","MEAN_ELEMENT_THEORY":"SGP4","RA_OF_ASC_NODE":"187.6944","BSTAR":"0.00022045000000","TIME_SYSTEM":"UTC","ARG_OF_PERICENTER":"47.4059","APOAPSIS":"548.535","RCS_SIZE":"LARGE","LAUNCH_DATE":"2020-01-07","TLE_LINE2":"2 44925  53.0530 187.6944 0001806  47.4059 312.7082 15.06377013127618","PERIAPSIS":"546.033","SITE":"AFETR","EPHEMERIS_TYPE":"0","COUNTRY_CODE":"US","MEAN_MOTION_DOT":"0.00003002","DECAY_DATE":null,"TLE_LINE1":"1 44925U 20001M   22121.61717695  .00003002  00000-0  22045-3 0  9998","REV_AT_EPOCH":"12761","ECCENTRICITY":"0.00018060","CENTER_NAME":"EARTH","OBJECT_TYPE":"PAYLOAD","MEAN_ANOMALY":"312.7082","FILE":"3424759","REF_FRAME":"TEME","MEAN_MOTION_DDOT":"0.0000000000000","OBJECT_NAME":"STARLINK-1112","INCLINATION":"53.0530","GP_ID":"202471886","OBJECT_ID":"2020-001M"},{"ARG_OF_PERICENTER":"69.2572","TIME_SYSTEM":"UTC","APOAPSIS":"550.760","RCS_SIZE":"LARGE","RA_OF_ASC_NODE":"187.7858","BSTAR":"0.00005395500000","MEAN_MOTION":"15.05577200","MEAN_ELEMENT_THEORY":"SGP4","SEMIMAJOR_AXIS":"6927.871","ELEMENT_SET_NO":"999","PERIOD":"95.644","NORAD_CAT_ID":"44926","EPOCH":"2022-05-01T14:25:10.778016","CLASSIFICATION_TYPE":"U","GP_ID":"202436087","OBJECT_ID":"2020-001N","MEAN_MOTION_DDOT":"0.0000000000000","OBJECT_NAME":"STARLINK-1113","INCLINATION":"53.0020","FILE":"3424314","REF_FRAME":"TEME","REV_AT_EPOCH":"12832","ECCENTRICITY":"0.00014770","CENTER_NAME":"EARTH","MEAN_ANOMALY":"290.8574","OBJECT_TYPE":"PAYLOAD","DECAY_DATE":null,"TLE_LINE1":"1 44926U 20001N   22121.60081919  .00000507  00000-0  53955-4 0  9993","MEAN_MOTION_DOT":"0.00000507","TLE_LINE2":"2 44926  53.0020 187.7858 0001477  69.2572 290.8574 15.05577200128324","PERIAPSIS":"548.713","SITE":"AFETR","EPHEMERIS_TYPE":"0","COUNTRY_CODE":"US","LAUNCH_DATE":"2020-01-07"},{"MEAN_MOTION_DOT":"-0.00000243","TLE_LINE1":"1 44927U 20001P   22121.49553571 -.00000243  00000-0  25867-5 0  9999","DECAY_DATE":null,"LAUNCH_DATE":"2020-01-07","PERIAPSIS":"546.108","TLE_LINE2":"2 44927  53.0533 188.2373 0001660  48.2061 311.9069 15.06385701127604","SITE":"AFETR","COUNTRY_CODE":"US","EPHEMERIS_TYPE":"0","MEAN_MOTION_DDOT":"0.0000000000000","OBJECT_NAME":"STARLINK-1114","INCLINATION":"53.0533","GP_ID":"202435335","OBJECT_ID":"2020-001P","REV_AT_EPOCH":"12760","ECCENTRICITY":"0.00016600","CENTER_NAME":"EARTH","MEAN_ANOMALY":"311.9069","OBJECT_TYPE":"PAYLOAD","FILE":"3424314","REF_FRAME":"TEME","ELEMENT_SET_NO":"999","PERIOD":"95.593","NORAD_CAT_ID":"44927","EPOCH":"2022-05-01T11:53:34.285344","CLASSIFICATION_TYPE":"U","RA_OF_ASC_NODE":"188.2373","BSTAR":"0.00000258670000","ARG_OF_PERICENTER":"48.2061","TIME_SYSTEM":"UTC","APOAPSIS":"548.407","RCS_SIZE":"LARGE","SEMIMAJOR_AXIS":"6925.392","MEAN_MOTION":"15.06385701","MEAN_ELEMENT_THEORY":"SGP4"},{"MEAN_ELEMENT_THEORY":"SGP4","MEAN_MOTION":"15.06391793","SEMIMAJOR_AXIS":"6925.374","ARG_OF_PERICENTER":"35.4484","TIME_SYSTEM":"UTC","RCS_SIZE":"LARGE","APOAPSIS":"548.655","BSTAR":"0.00032860000000","RA_OF_ASC_NODE":"188.2606","EPOCH":"2022-05-01T11:48:16.630560","CLASSIFICATION_TYPE":"U","PERIOD":"95.593","ELEMENT_SET_NO":"999","NORAD_CAT_ID":"44928","FILE":"3424314","REF_FRAME":"TEME","ECCENTRICITY":"0.00020450","REV_AT_EPOCH":"12760","MEAN_ANOMALY":"324.6640","OBJECT_TYPE":"PAYLOAD","CENTER_NAME":"EARTH","GP_ID":"202435585","OBJECT_ID":"2020-001Q","OBJECT_NAME":"STARLINK-1119","MEAN_MOTION_DDOT":"0.0000000000000","INCLINATION":"53.0520","SITE":"AFETR","PERIAPSIS":"545.822","TLE_LINE2":"2 44928  53.0520 188.2606 0002045  35.4484 324.6640 15.06391793127609","COUNTRY_CODE":"US","EPHEMERIS_TYPE":"0","LAUNCH_DATE":"2020-01-07","DECAY_DATE":null,"TLE_LINE1":"1 44928U 20001Q   22121.49185915  .00004615  00000-0  32860-3 0  9998","MEAN_MOTION_DOT":"0.00004615"},{"COUNTRY_CODE":"US","EPHEMERIS_TYPE":"0","TLE_LINE2":"2 44929  53.0543 188.0209 0001704  54.9702 305.1447 15.06383811127603","PERIAPSIS":"546.083","SITE":"AFETR","LAUNCH_DATE":"2020-01-07","TLE_LINE1":"1 44929U 20001R   22121.54346461 -.00000595  00000-0 -21056-4 0  9991","DECAY_DATE":null,"MEAN_MOTION_DOT":"-0.00000595","REF_FRAME":"TEME","FILE":"3424314","CENTER_NAME":"EARTH","OBJECT_TYPE":"PAYLOAD","MEAN_ANOMALY":"305.1447","REV_AT_EPOCH":"12760","ECCENTRICITY":"0.00017040","OBJECT_ID":"2020-001R","GP_ID":"202435837","INCLINATION":"53.0543","MEAN_MOTION_DDOT":"0.0000000000000","OBJECT_NAME":"STARLINK-1121","CLASSIFICATION_TYPE":"U","EPOCH":"2022-05-01T13:02:35.342304","NORAD_CAT_ID":"44929","ELEMENT_SET_NO":"999","PERIOD":"95.593","MEAN_MOTION":"15.06383811","MEAN_ELEMENT_THEORY":"SGP4","SEMIMAJOR_AXIS":"6925.398","APOAPSIS":"548.443","RCS_SIZE":"LARGE","ARG_OF_PERICENTER":"54.9702","TIME_SYSTEM":"UTC","RA_OF_ASC_NODE":"188.0209","BSTAR":"-0.00002105600000"}];
